{
    "links": {
        "self": "http://www.neowsapp.com/rest/v1/neo/3392370?api_key=iIulBulltgU6a56xZRHN4H3l9WmuAYTsLGpBGhQ2"
    },
    "id": "3392370",
    "neo_reference_id": "3392370",
    "name": "(2007 VV7)",
    "designation": "2007 VV7",
    "nasa_jpl_url": "http://ssd.jpl.nasa.gov/sbdb.cgi?sstr=3392370",
    "absolute_magnitude_h": 26.8,
    "estimated_diameter": {
        "kilometers": {
            "estimated_diameter_min": 0.0116025908,
            "estimated_diameter_max": 0.0259441818
        },
        "meters": {
            "estimated_diameter_min": 11.6025908209,
            "estimated_diameter_max": 25.9441817907
        },
        "miles": {
            "estimated_diameter_min": 0.0072095135,
            "estimated_diameter_max": 0.0161209622
        },
        "feet": {
            "estimated_diameter_min": 38.066244069,
            "estimated_diameter_max": 85.1187093863
        }
    },
    "is_potentially_hazardous_asteroid": false,
    "close_approach_data": [
        {
            "close_approach_date": "2007-10-25",
            "close_approach_date_full": "2007-Oct-25 15:43",
            "epoch_date_close_approach": 1193326980000,
            "relative_velocity": {
                "kilometers_per_second": "6.941607192",
                "kilometers_per_hour": "24989.7858912771",
                "miles_per_hour": "15527.6811278327"
            },
            "miss_distance": {
                "astronomical": "0.0294237582",
                "lunar": "11.4458419398",
                "kilometers": "4401731.554115034",
                "miles": "2735109.1590301092"
            },
            "orbiting_body": "Earth"
        },
        {
            "close_approach_date": "2008-02-16",
            "close_approach_date_full": "2008-Feb-16 10:18",
            "epoch_date_close_approach": 1203157080000,
            "relative_velocity": {
                "kilometers_per_second": "9.3652515629",
                "kilometers_per_hour": "33714.9056264652",
                "miles_per_hour": "20949.1312210667"
            },
            "miss_distance": {
                "astronomical": "0.0598367986",
                "lunar": "23.2765146554",
                "kilometers": "8951457.618178982",
                "miles": "5562177.8423226716"
            },
            "orbiting_body": "Mars"
        }
    ],
    "orbital_data": {
        "orbit_id": "8",
        "orbit_determination_date": "2017-04-06 09:05:23",
        "first_observation_date": "2007-11-04",
        "last_observation_date": "2007-11-07",
        "data_arc_in_days": 3,
        "observations_used": 19,
        "orbit_uncertainty": "9",
        "minimum_orbit_intersection": ".0133437",
        "jupiter_tisserand_invariant": "3.978",
        "epoch_osculation": "2454409.5",
        "eccentricity": ".4385132177282249",
        "semi_major_axis": "1.777248261641617",
        "inclination": ".7825367642649212",
        "ascending_node_longitude": "274.2844117677334",
        "orbital_period": "865.4073393282966",
        "perihelion_distance": ".9979014077272571",
        "perihelion_argument": "97.51837539301802",
        "aphelion_distance": "2.556595115555976",
        "perihelion_time": "2454383.004050693594",
        "mean_anomaly": "11.02202548652949",
        "mean_motion": ".4159890766346184",
        "equinox": "J2000",
        "orbit_class": {
            "orbit_class_type": "APO",
            "orbit_class_description": "Near-Earth asteroid orbits which cross the Earth’s orbit similar to that of 1862 Apollo",
            "orbit_class_range": "a (semi-major axis) > 1.0 AU; q (perihelion) < 1.017 AU"
        }
    },
    "is_sentry_object": false
}